{"spkid": "54172000", "covariance": {"epoch": "2458800.5", "data": [["1.428641044075989E-14", "-1.151559767479593E-14", "1.498113185846453E-12", "9.792409460481656E-14", "4.116314380535439E-13", "9.180796640504215E-13"], ["-1.151559767479593E-14", "9.283034091783203E-15", "-1.207262580447143E-12", "-7.647449851536018E-14", "-3.3392117009601E-13", "-7.37375271011106E-13"], ["1.498113185846453E-12", "-1.207262580447143E-12", "2.154287400776247E-10", "4.435544589903658E-11", "3.543446789629969E-11", "1.077994243358126E-10"], ["9.792409460481656E-14", "-7.647449851536018E-14", "4.435544589903658E-11", "6.778049619045253E-11", "-5.064481495033172E-11", "5.942822283190484E-11"], ["4.116314380535439E-13", "-3.3392117009601E-13", "3.543446789629969E-11", "-5.064481495033172E-11", "6.660278171566854E-11", "-2.179956801782391E-11"], ["9.180796640504215E-13", "-7.37375271011106E-13", "1.077994243358126E-10", "5.942822283190484E-11", "-2.179956801782391E-11", "1.43410260693432E-10"]], "elements": [{"units": null, "value": ".4322817020941614", "title": "eccentricity", "sigma": 1.19525773123456e-07, "name": "e", "label": "e"}, {"label": "q", "units": "au", "title": "perihelion distance", "value": ".4603670603807071", "sigma": 9.63485033188539e-08, "name": "q"}, {"label": "tp", "units": "TDB", "title": "time of perihelion passage", "value": "2458800.014853113778", "sigma": 1.46774909326364e-05, "name": "tp"}, {"label": "node", "units": "deg", "value": "294.3674548498001", "title": "longitude of the ascending node", "sigma": 8.23289111979823e-06, "name": "om"}, {"sigma": 8.16105273329786e-06, "name": "w", "units": "deg", "title": "argument of perihelion", "value": "218.0953456255128", "label": "peri"}, {"sigma": 1.1975402318646e-05, "name": "i", "units": "deg", "title": "inclination", "value": "15.45819392866619", "label": "i"}], "labels": ["e", "q", "tp", "node", "peri", "i"]}, "elements": [{"units": null, "value": ".4325874179257736", "title": "eccentricity", "sigma": "1.1923E-7", "name": "e", "label": "e"}, {"units": "au", "value": ".8106835255902541", "title": "semi-major axis", "name": "a", "sigma": "2.0359E-9", "label": "a"}, {"sigma": "9.5906E-8", "name": "q", "title": "perihelion distance", "value": ".4599920325002033", "units": "au", "label": "q"}, {"label": "i", "sigma": "1.198E-5", "name": "i", "units": "deg", "value": "15.45173542657877", "title": "inclination; angle with respect to x-y ecliptic plane"}, {"label": "node", "value": "294.3092645378524", "title": "longitude of the ascending node", "units": "deg", "sigma": "8.2707E-6", "name": "om"}, {"title": "argument of perihelion", "value": "218.102646725578", "units": "deg", "name": "w", "sigma": "8.2285E-6", "label": "peri"}, {"units": "deg", "value": "1.033433277312839", "title": "mean anomaly", "sigma": "2.771E-5", "name": "ma", "label": "M"}, {"units": "TDB", "value": "2461199.734658277562", "title": "time of perihelion passage", "name": "tp", "sigma": "2.0519E-5", "label": "tp"}, {"units": "d", "value": "266.6093942649835", "title": "sidereal orbital period", "name": "per", "sigma": "1.0043E-6", "label": "period"}, {"value": "1.350290003818078", "title": "mean motion", "units": "deg/d", "sigma": "5.0865E-9", "name": "n", "label": "n"}, {"title": "aphelion distance", "value": "1.161375018680305", "units": "au", "name": "ad", "sigma": "2.9166E-9", "label": "Q"}], "epoch": "2461200.5"}